[{"OBJECT_NAME":"STARLINK-5449","OBJECT_ID":"2022-175Y","EPOCH":"2026-03-09T21:45:59.559840","MEAN_MOTION":15.08847038,"ECCENTRICITY":0.00015732,"INCLINATION":53.2193,"RA_OF_ASC_NODE":28.0415,"ARG_OF_PERICENTER":112.9614,"MEAN_ANOMALY":247.1544,"EPHEMERIS_TYPE":0,"CLASSIFICATION_TYPE":"U","NORAD_CAT_ID":54780,"ELEMENT_SET_NO":999,"REV_AT_EPOCH":18016,"BSTAR":0.00014069673,"MEAN_MOTION_DOT":1.952e-5,"MEAN_MOTION_DDOT":0},{"OBJECT_NAME":"DISKSAT B","OBJECT_ID":"2025-305B","EPOCH":"2026-03-09T19:33:34.074144","MEAN_MOTION":15.07484556,"ECCENTRICITY":0.00037827,"INCLINATION":45.0018,"RA_OF_ASC_NODE":250.2098,"ARG_OF_PERICENTER":311.4052,"MEAN_ANOMALY":48.6498,"EPHEMERIS_TYPE":0,"CLASSIFICATION_TYPE":"U","NORAD_CAT_ID":67220,"ELEMENT_SET_NO":999,"REV_AT_EPOCH":1231,"BSTAR":0.00082400752,"MEAN_MOTION_DOT":0.00012481,"MEAN_MOTION_DDOT":0}]
